{"type":"FeatureCollection","features":[{"type":"Feature","properties":{},"geometry":{"coordinates":[[-73.6310338830836,12.369403201799216],[-67.3913811079392,12.954555371932699],[-58.76361738905979,8.834583993851894],[-50.28771470708881,4.8585731999083634],[-33.37735340552308,-5.617996511947837],[-41.745729786520684,-26.241300672760808],[-64.9497986523522,-57.64734135948078],[-77.67550848677442,-54.95134844160519],[-75.39876020814772,-35.62049822846644],[-70.98547792194353,-18.693340570283056],[-78.98844329193754,-14.343874989283933],[-82.87859830417723,-3.5216223129154685],[-78.48685190636719,6.31993633338098],[-75.6121365934705,11.508584852776067],[-73.60443790547316,12.346616677684594]],"type":"LineString"}}]}